PANDORA
1 67395U 80229J   26081.81538194  .00000000  00000-0  37770-3 0    07
2 67395  97.8064  81.8266 0006747  62.9416 237.4633 14.87884504    06
